STARLINK-37491          
1 69166U 26111U   26160.55546027  .00179904  00000+0  10158-2 0  9994
2 69166  53.1590 189.8815 0001195  99.2800 260.8356 15.78110060  3054
STARLINK-37474          
1 69167U 26111V   26160.55290411  .00224006  00000+0  12562-2 0  9993
2 69167  53.1590 189.8643 0000876  96.2121 263.9000 15.78129682  3052
STARLINK-37469          
1 69168U 26111W   26160.91668981 -.02477293  00000+0 -38925-1 0  9997
2 69168  53.1600 188.3097 0001198  58.0711  80.9331 15.56867417  4372
STARLINK-37515          
1 69169U 26111X   26160.55126360  .00177139  00000+0  99984-3 0  9994
2 69169  53.1591 189.8524 0001534 131.5713 228.5441 15.78125850  3054
STARLINK-37437          
1 69170U 26111Y   26160.91668981  .00010933  00000+0  66759-4 0  9999
2 69170  53.1593 187.9783 0001156 103.5158 198.0674 15.78045779  4383
STARLINK-37392          
1 69171U 26111Z   26160.91668981 -.00023134  00000+0 -12971-3 0  9995
2 69171  53.1589 187.9482 0001135  79.9492 235.9627 15.78060639  4380
STARLINK-37472          
1 69172U 26111AA  26160.91668981  .00037634  00000+0  21986-3 0  9990
2 69172  53.1592 187.9167 0001003  91.6274 239.4875 15.78032445  4386
STARLINK-37461          
1 69173U 26111AB  26160.91668981 -.02481008  00000+0 -36350-1 0  9992
2 69173  53.1598 188.2369 0001269  75.7985  98.0728 15.58713362  4385
STARLINK-37333          
1 69174U 26111AC  26160.54965288  .00210625  00000+0  11837-2 0  9997
2 69174  53.1586 189.8418 0001415  73.3297 286.7880 15.78121995  3053
STARLINK-37385          
1 69175U 26111AD  26160.91668981 -.02485343  00000+0 -33744-1 0  9994
2 69175  53.1598 188.1766 0001301  75.1602 128.5249 15.60692533  4380
STARLINK-37414          
1 69176U 26111AE  26160.91668981 -.00011760  00000+0 -63978-4 0  9996
2 69176  53.1588 187.9575 0001106  82.9161 228.3619 15.78052659  4382
STRIX-7                 
1 69177U 26112A   26160.72043045  .00002980  00000+0  24397-3 0  9998
2 69177  44.9066 231.6656 0023920   4.8015 355.3082 15.01399195  2757
SHENZHOU-23 (SZ-23)     
1 69180U 26113A   26160.87388646  .00021595  00000+0  25760-3 0  9996
2 69180  41.4695   6.4998 0008506  18.7671 341.3480 15.60503231291887
STARLINK-37380          
1 69182U 26114A   26160.68292253  .00173109  00000+0  97660-3 0  9993
2 69182  53.1585 239.9600 0001157  47.7933 312.3186 15.78149890  3583
STARLINK-37089          
1 69183U 26114B   26160.74533168  .00153324  00000+0  86904-3 0  9990
2 69183  53.1586 239.6381 0001224  61.6872 298.4273 15.78108346  3593
STARLINK-37428          
1 69184U 26114C   26160.74392400  .00209490  00000+0  11771-2 0  9998
2 69184  53.1587 239.6296 0001047  79.0943 281.0197 15.78129378  3596
STARLINK-37237          
1 69185U 26114D   26160.74117085  .00204392  00000+0  11494-2 0  9991
2 69185  53.1591 239.6106 0000866  83.1660 276.9460 15.78126024  3593
STARLINK-37365          
1 69186U 26114E   26160.67815417  .00232767  00000+0  13040-2 0  9994
2 69186  53.1588 239.9285 0001125  66.4649 293.6491 15.78126240  3580
STARLINK-37209          
1 69187U 26114F   26160.67738095  .00230339  00000+0  12909-2 0  9997
2 69187  53.1590 239.9237 0001042  80.4345 279.6794 15.78126135  3581
STARLINK-37359          
1 69188U 26114G   26160.74027192  .00160366  00000+0  90797-3 0  9999
2 69188  53.1590 239.6040 0001053  69.9460 290.1674 15.78109839  3591
STARLINK-37440          
1 69189U 26114H   26160.91668981  .00132582  00000+0  66669-3 0  9996
2 69189  53.1598 238.2708 0001057  88.3719  53.8918 15.80817805  3645
STARLINK-37282          
1 69190U 26114J   26160.91668981 -.00090019  00000+0 -51964-3 0  9990
2 69190  53.1596 238.6475 0000934  96.8233 222.7833 15.78073120  3642
STARLINK-37422          
1 69191U 26114K   26160.79256276  .00274522  00000+0  13444-2 0  9998
2 69191  53.1587 239.2139 0001192  75.5105 284.6050 15.80974065  3601
STARLINK-37424          
1 69192U 26114L   26160.91668981 -.00083760  00000+0 -48306-3 0  9993
2 69192  53.1591 238.6501 0001080 113.0989 205.8904 15.78064632  3641
STARLINK-36666          
1 69193U 26114M   26160.79278439  .00299075  00000+0  14594-2 0  9992
2 69193  53.1588 239.2163 0001696  47.3185 312.7980 15.80985252  3600
STARLINK-37355          
1 69194U 26114N   26160.79203532  .00233919  00000+0  11522-2 0  9998
2 69194  53.1587 239.2107 0001736  43.1812 316.9346 15.80961297  3609
STARLINK-37166          
1 69195U 26114P   26160.79053679  .00276883  00000+0  13564-2 0  9999
2 69195  53.1587 239.1998 0001277  49.4388 310.6746 15.80960979  3605
STARLINK-36933          
1 69196U 26114Q   26160.79128200  .00277183  00000+0  13566-2 0  9999
2 69196  53.1588 239.2056 0001114  74.8485 285.2661 15.80979640  3601
STARLINK-37419          
1 69197U 26114R   26160.72656327  .00234226  00000+0  11538-2 0  9997
2 69197  53.1586 239.5122 0001255  91.3428 268.7739 15.80958409  3594
