OBJECT_NAME,OBJECT_ID,EPOCH,MEAN_MOTION,ECCENTRICITY,INCLINATION,RA_OF_ASC_NODE,ARG_OF_PERICENTER,MEAN_ANOMALY,EPHEMERIS_TYPE,CLASSIFICATION_TYPE,NORAD_CAT_ID,ELEMENT_SET_NO,REV_AT_EPOCH,BSTAR,MEAN_MOTION_DOT,MEAN_MOTION_DDOT
STARLINK-37491,2026-111U,2026-06-09T13:19:51.767328,15.78110060,.00011956,53.1590,189.8815,99.2800,260.8356,0,U,69166,999,305,.1015782E-2,.179904E-2,0
STARLINK-37474,2026-111V,2026-06-09T13:16:10.915104,15.78129682,.00008763,53.1590,189.8643,96.2121,263.9000,0,U,69167,999,305,.12561998E-2,.224006E-2,0
STARLINK-37469,2026-111W,2026-06-09T22:00:01.999584,15.56867417,.00011984,53.1600,188.3097,58.0711,80.9331,0,U,69168,999,437,-.38925253E-1,-.2477293E-1,0
STARLINK-37515,2026-111X,2026-06-09T13:13:49.175040,15.78125850,.00015342,53.1591,189.8524,131.5713,228.5441,0,U,69169,999,305,.99983787E-3,.177139E-2,0
STARLINK-37437,2026-111Y,2026-06-09T22:00:01.999584,15.78045779,.00011567,53.1593,187.9783,103.5158,198.0674,0,U,69170,999,438,.66758873E-4,.10933E-3,0
STARLINK-37392,2026-111Z,2026-06-09T22:00:01.999584,15.78060639,.00011356,53.1589,187.9482,79.9492,235.9627,0,U,69171,999,438,-.12971253E-3,-.23134E-3,0
STARLINK-37472,2026-111AA,2026-06-09T22:00:01.999584,15.78032445,.00010031,53.1592,187.9167,91.6274,239.4875,0,U,69172,999,438,.2198554E-3,.37634E-3,0
STARLINK-37461,2026-111AB,2026-06-09T22:00:01.999584,15.58713362,.00012692,53.1598,188.2369,75.7985,98.0728,0,U,69173,999,438,-.36349765E-1,-.2481008E-1,0
STARLINK-37333,2026-111AC,2026-06-09T13:11:30.008832,15.78121995,.00014154,53.1586,189.8418,73.3297,286.7880,0,U,69174,999,305,.11836622E-2,.210625E-2,0
STARLINK-37385,2026-111AD,2026-06-09T22:00:01.999584,15.60692533,.0001301,53.1598,188.1766,75.1602,128.5249,0,U,69175,999,438,-.33744346E-1,-.2485343E-1,0
STARLINK-37414,2026-111AE,2026-06-09T22:00:01.999584,15.78052659,.00011063,53.1588,187.9575,82.9161,228.3619,0,U,69176,999,438,-.63978276E-4,-.1176E-3,0
STRIX-7,2026-112A,2026-06-09T17:17:25.190880,15.01399195,.00239207,44.9066,231.6656,4.8015,355.3082,0,U,69177,999,275,.24397136E-3,.298E-4,0
SHENZHOU-23 (SZ-23),2026-113A,2026-06-09T20:58:23.790144,15.60503231,.0008506,41.4695,6.4998,18.7671,341.3480,0,U,69180,999,29188,.25759568E-3,.21595E-3,0
STARLINK-37380,2026-114A,2026-06-09T16:23:24.506592,15.78149890,.0001157,53.1585,239.9600,47.7933,312.3186,0,U,69182,999,358,.97659662E-3,.173109E-2,0
STARLINK-37089,2026-114B,2026-06-09T17:53:16.657152,15.78108346,.00012241,53.1586,239.6381,61.6872,298.4273,0,U,69183,999,359,.8690414E-3,.153324E-2,0
STARLINK-37428,2026-114C,2026-06-09T17:51:15.033600,15.78129378,.0001047,53.1587,239.6296,79.0943,281.0197,0,U,69184,999,359,.11770752E-2,.20949E-2,0
STARLINK-37237,2026-114D,2026-06-09T17:47:17.161440,15.78126024,.00008665,53.1591,239.6106,83.1660,276.9460,0,U,69185,999,359,.11493845E-2,.204392E-2,0
STARLINK-37365,2026-114E,2026-06-09T16:16:32.520288,15.78126240,.0001125,53.1588,239.9285,66.4649,293.6491,0,U,69186,999,358,.1304045E-2,.232767E-2,0
STARLINK-37209,2026-114F,2026-06-09T16:15:25.714080,15.78126135,.00010427,53.1590,239.9237,80.4345,279.6794,0,U,69187,999,358,.12908541E-2,.230339E-2,0
STARLINK-37359,2026-114G,2026-06-09T17:45:59.493888,15.78109839,.00010535,53.1590,239.6040,69.9460,290.1674,0,U,69188,999,359,.90796792E-3,.160366E-2,0
STARLINK-37440,2026-114H,2026-06-09T22:00:01.999584,15.80817805,.00010577,53.1598,238.2708,88.3719,53.8918,0,U,69189,999,364,.66668519E-3,.132582E-2,0
STARLINK-37282,2026-114J,2026-06-09T22:00:01.999584,15.78073120,.00009341,53.1596,238.6475,96.8233,222.7833,0,U,69190,999,364,-.51964181E-3,-.90019E-3,0
STARLINK-37422,2026-114K,2026-06-09T19:01:17.422464,15.80974065,.00011923,53.1587,239.2139,75.5105,284.6050,0,U,69191,999,360,.13443796E-2,.274522E-2,0
STARLINK-37424,2026-114L,2026-06-09T22:00:01.999584,15.78064632,.00010802,53.1591,238.6501,113.0989,205.8904,0,U,69192,999,364,-.48306342E-3,-.8376E-3,0
STARLINK-36666,2026-114M,2026-06-09T19:01:36.571296,15.80985252,.0001696,53.1588,239.2163,47.3185,312.7980,0,U,69193,999,360,.14593717E-2,.299075E-2,0
STARLINK-37355,2026-114N,2026-06-09T19:00:31.851648,15.80961297,.00017363,53.1587,239.2107,43.1812,316.9346,0,U,69194,999,360,.11521663E-2,.233919E-2,0
STARLINK-37166,2026-114P,2026-06-09T18:58:22.378656,15.80960979,.00012774,53.1587,239.1998,49.4388,310.6746,0,U,69195,999,360,.13563559E-2,.276883E-2,0
STARLINK-36933,2026-114Q,2026-06-09T18:59:26.764800,15.80979640,.00011144,53.1588,239.2056,74.8485,285.2661,0,U,69196,999,360,.13566064E-2,.277183E-2,0
STARLINK-37419,2026-114R,2026-06-09T17:26:15.066528,15.80958409,.00012553,53.1586,239.5122,91.3428,268.7739,0,U,69197,999,359,.11537935E-2,.234226E-2,0
